{
  "norad_id": 68349,
  "name": "STARLINK-37183",
  "history": [
    {
      "epoch": "2026-03-31T16:00:01.999584Z",
      "apogee_km": 318.6072189667211,
      "perigee_km": 317.567964910053,
      "latitude_deg": -28.932015607741263,
      "longitude_deg": 159.14832416573662,
      "height_km": 327.0103467466332,
      "semi_major_axis_km": 6696.224591938387,
      "eccentricity": 7.76e-05,
      "inclination_deg": 53.1593,
      "raan_deg": 252.5151,
      "arg_perigee_deg": 74.3099,
      "mean_anomaly_deg": 248.7937,
      "mean_motion_rev_day": 15.84374138
    },
    {
      "epoch": "2026-04-02T19:43:16.594176Z",
      "apogee_km": 328.9203086127527,
      "perigee_km": 326.116405881673,
      "latitude_deg": -1.0471011188417616e-05,
      "longitude_deg": 114.71886979286482,
      "height_km": 329.302343593316,
      "semi_major_axis_km": 6705.655357247213,
      "eccentricity": 0.00020907,
      "inclination_deg": 53.1591,
      "raan_deg": 241.7029,
      "arg_perigee_deg": 232.0129,
      "mean_anomaly_deg": 128.0705,
      "mean_motion_rev_day": 15.81032942
    },
    {
      "epoch": "2026-04-03T18:28:52.753728Z",
      "apogee_km": 328.0307116081058,
      "perigee_km": 327.37353937380794,
      "latitude_deg": 1.832323789832831e-05,
      "longitude_deg": 127.63090470458545,
      "height_km": 328.7289008676697,
      "semi_major_axis_km": 6705.839125490957,
      "eccentricity": 4.9e-05,
      "inclination_deg": 53.1589,
      "raan_deg": 236.9503,
      "arg_perigee_deg": 109.2002,
      "mean_anomaly_deg": 250.9074,
      "mean_motion_rev_day": 15.80967952
    },
    {
      "epoch": "2026-04-04T20:16:28.815744Z",
      "apogee_km": 328.7114893775424,
      "perigee_km": 327.1704326620993,
      "latitude_deg": 3.779330952913182e-05,
      "longitude_deg": 94.2848647223691,
      "height_km": 329.2367903348204,
      "semi_major_axis_km": 6706.077961019821,
      "eccentricity": 0.0001149,
      "inclination_deg": 53.1589,
      "raan_deg": 231.5638,
      "arg_perigee_deg": 119.3658,
      "mean_anomaly_deg": 240.748,
      "mean_motion_rev_day": 15.80883494
    },
    {
      "epoch": "2026-04-05T14:00:03.000384Z",
      "apogee_km": 328.1884197186764,
      "perigee_km": 327.37888097776613,
      "latitude_deg": -47.173091497525185,
      "longitude_deg": 57.45638622863862,
      "height_km": 344.08018941099044,
      "semi_major_axis_km": 6705.920650348221,
      "eccentricity": 6.036e-05,
      "inclination_deg": 53.1591,
      "raan_deg": 227.8645,
      "arg_perigee_deg": 126.4051,
      "mean_anomaly_deg": 119.6015,
      "mean_motion_rev_day": 15.80939122
    },
    {
      "epoch": "2026-04-05T20:00:03.000384Z",
      "apogee_km": 328.61843757442057,
      "perigee_km": 327.8780526433593,
      "latitude_deg": -37.80566889929285,
      "longitude_deg": -52.22359616080985,
      "height_km": 340.5345392561598,
      "semi_major_axis_km": 6706.38524510889,
      "eccentricity": 5.52e-05,
      "inclination_deg": 53.1588,
      "raan_deg": 226.6121,
      "arg_perigee_deg": 135.511,
      "mean_anomaly_deg": 94.15,
      "mean_motion_rev_day": 15.80774842
    },
    {
      "epoch": "2026-04-06T04:08:13.604352Z",
      "apogee_km": 328.07244554088356,
      "perigee_km": 327.30395797276196,
      "latitude_deg": -5.323201656795443e-05,
      "longitude_deg": -31.612568623147194,
      "height_km": 328.7330899832955,
      "semi_major_axis_km": 6705.825201756823,
      "eccentricity": 5.73e-05,
      "inclination_deg": 53.1591,
      "raan_deg": 224.9116,
      "arg_perigee_deg": 251.024,
      "mean_anomaly_deg": 109.072,
      "mean_motion_rev_day": 15.80972876
    },
    {
      "epoch": "2026-04-07T19:35:09.762144Z",
      "apogee_km": 328.6739735060919,
      "perigee_km": 326.76950962348747,
      "latitude_deg": -1.9426651994118278e-05,
      "longitude_deg": 86.7957512158985,
      "height_km": 328.6862818362855,
      "semi_major_axis_km": 6705.858741564789,
      "eccentricity": 0.000142,
      "inclination_deg": 53.1584,
      "raan_deg": 216.674,
      "arg_perigee_deg": 92.8377,
      "mean_anomaly_deg": 267.2808,
      "mean_motion_rev_day": 15.80961015
    },
    {
      "epoch": "2026-04-08T13:47:35.862432Z",
      "apogee_km": 328.3817419938832,
      "perigee_km": 327.17467725615097,
      "latitude_deg": -4.518792590910176e-05,
      "longitude_deg": 169.13783331930438,
      "height_km": 328.54640010186614,
      "semi_major_axis_km": 6705.915209625017,
      "eccentricity": 9e-05,
      "inclination_deg": 53.1588,
      "raan_deg": 212.8726,
      "arg_perigee_deg": 75.6101,
      "mean_anomaly_deg": 284.5021,
      "mean_motion_rev_day": 15.80941046
    },
    {
      "epoch": "2026-04-09T18:37:17.295168Z",
      "apogee_km": 328.8187620243107,
      "perigee_km": 326.77211144461944,
      "latitude_deg": -9.761414165618591e-06,
      "longitude_deg": 89.51138863234482,
      "height_km": 328.38264174849957,
      "semi_major_axis_km": 6705.932436734464,
      "eccentricity": 0.0001526,
      "inclination_deg": 53.1584,
      "raan_deg": 206.8527,
      "arg_perigee_deg": 71.1781,
      "mean_anomaly_deg": 288.9407,
      "mean_motion_rev_day": 15.80934954
    },
    {
      "epoch": "2026-04-10T11:18:40.327776Z",
      "apogee_km": 328.5183564453955,
      "perigee_km": 327.15302040603274,
      "latitude_deg": 2.501841867685062e-05,
      "longitude_deg": -165.00497934109927,
      "height_km": 328.89966255495057,
      "semi_major_axis_km": 6705.972688425714,
      "eccentricity": 0.0001018,
      "inclination_deg": 53.1587,
      "raan_deg": 203.3677,
      "arg_perigee_deg": 102.3483,
      "mean_anomaly_deg": 257.7654,
      "mean_motion_rev_day": 15.8092072
    },
    {
      "epoch": "2026-04-11T17:39:24.018624Z",
      "apogee_km": 328.45584951171804,
      "perigee_km": 327.1575788086566,
      "latitude_deg": 9.71852391967342e-06,
      "longitude_deg": 92.23031749792624,
      "height_km": 329.16176500166443,
      "semi_major_axis_km": 6705.9437141601875,
      "eccentricity": 9.68e-05,
      "inclination_deg": 53.1585,
      "raan_deg": 197.0313,
      "arg_perigee_deg": 132.2819,
      "mean_anomaly_deg": 227.8286,
      "mean_motion_rev_day": 15.80930966
    },
    {
      "epoch": "2026-04-12T17:55:58.319328Z",
      "apogee_km": 328.2060193279458,
      "perigee_km": 327.1389909194895,
      "latitude_deg": -1.3383478890898536e-06,
      "longitude_deg": 82.02140098060545,
      "height_km": 328.8744097962878,
      "semi_major_axis_km": 6705.809505123717,
      "eccentricity": 7.956e-05,
      "inclination_deg": 53.1582,
      "raan_deg": 191.9623,
      "arg_perigee_deg": 122.1032,
      "mean_anomaly_deg": 238.0068,
      "mean_motion_rev_day": 15.80978427
    },
    {
      "epoch": "2026-04-15T20:00:01.999008Z",
      "apogee_km": 364.0867865298642,
      "perigee_km": 362.35290954854827,
      "latitude_deg": -36.710912472362736,
      "longitude_deg": -113.62456025696895,
      "height_km": 375.82365046599654,
      "semi_major_axis_km": 6741.356848039206,
      "eccentricity": 0.0001286,
      "inclination_deg": 53.1596,
      "raan_deg": 176.6265,
      "arg_perigee_deg": 72.4283,
      "mean_anomaly_deg": 155.5736,
      "mean_motion_rev_day": 15.68490118
    },
    {
      "epoch": "2026-04-16T20:00:01.999008Z",
      "apogee_km": 376.107886387239,
      "perigee_km": 374.48571158872255,
      "latitude_deg": 48.84015694481233,
      "longitude_deg": 148.28068331384327,
      "height_km": 380.3260306818216,
      "semi_major_axis_km": 6753.4337989879805,
      "eccentricity": 0.0001201,
      "inclination_deg": 53.1585,
      "raan_deg": 171.7213,
      "arg_perigee_deg": 59.3716,
      "mean_anomaly_deg": 50.8007,
      "mean_motion_rev_day": 15.64284678
    },
    {
      "epoch": "2026-04-17T22:00:01.999584Z",
      "apogee_km": 389.10258644441456,
      "perigee_km": 387.89934288153745,
      "latitude_deg": 53.07246977174814,
      "longitude_deg": 72.82068619048017,
      "height_km": 394.4189624788905,
      "semi_major_axis_km": 6766.637964662976,
      "eccentricity": 8.891e-05,
      "inclination_deg": 53.159,
      "raan_deg": 166.4406,
      "arg_perigee_deg": 72.9654,
      "mean_anomaly_deg": 12.4827,
      "mean_motion_rev_day": 15.59708182
    },
    {
      "epoch": "2026-04-18T20:00:01.000224Z",
      "apogee_km": 400.52247452728534,
      "perigee_km": 398.7114586674106,
      "latitude_deg": -7.354625052385517,
      "longitude_deg": -159.43142096125015,
      "height_km": 402.23178730336497,
      "semi_major_axis_km": 6777.753966597347,
      "eccentricity": 0.0001336,
      "inclination_deg": 53.1591,
      "raan_deg": 162.0012,
      "arg_perigee_deg": 68.6161,
      "mean_anomaly_deg": 120.4184,
      "mean_motion_rev_day": 15.55872706
    },
    {
      "epoch": "2026-04-19T20:00:01.999008Z",
      "apogee_km": 412.4509582228102,
      "perigee_km": 411.1106284504058,
      "latitude_deg": 20.455084740006736,
      "longitude_deg": 25.381846855280433,
      "height_km": 412.0374672564158,
      "semi_major_axis_km": 6789.917793336608,
      "eccentricity": 9.87e-05,
      "inclination_deg": 53.159,
      "raan_deg": 157.1881,
      "arg_perigee_deg": 93.5065,
      "mean_anomaly_deg": 292.337,
      "mean_motion_rev_day": 15.51693667
    },
    {
      "epoch": "2026-04-20T14:00:03.000384Z",
      "apogee_km": 420.75331390533574,
      "perigee_km": 419.0554350916409,
      "latitude_deg": -50.37577119440427,
      "longitude_deg": -20.945765322451827,
      "height_km": 438.1446071864298,
      "semi_major_axis_km": 6798.041374498488,
      "eccentricity": 0.00012488,
      "inclination_deg": 53.1583,
      "raan_deg": 153.5987,
      "arg_perigee_deg": 72.9674,
      "mean_anomaly_deg": 180.7892,
      "mean_motion_rev_day": 15.48913114
    },
    {
      "epoch": "2026-04-21T20:00:01.999008Z",
      "apogee_km": 435.7378834975925,
      "perigee_km": 434.7962710541133,
      "latitude_deg": 12.733489300583912,
      "longitude_deg": 7.428868275426263,
      "height_km": 435.2794091415231,
      "semi_major_axis_km": 6813.404077275853,
      "eccentricity": 6.91e-05,
      "inclination_deg": 53.1605,
      "raan_deg": 147.6488,
      "arg_perigee_deg": 89.9214,
      "mean_anomaly_deg": 286.0735,
      "mean_motion_rev_day": 15.43677389
    },
    {
      "epoch": "2026-04-22T20:00:03.000384Z",
      "apogee_km": 447.8419633592839,
      "perigee_km": 446.3813601456686,
      "latitude_deg": 8.881395522272804,
      "longitude_deg": 165.33581891250702,
      "height_km": 446.94821867234117,
      "semi_major_axis_km": 6825.2486617524755,
      "eccentricity": 0.000107,
      "inclination_deg": 53.161,
      "raan_deg": 142.9229,
      "arg_perigee_deg": 107.4173,
      "mean_anomaly_deg": 61.4183,
      "mean_motion_rev_day": 15.3966077
    },
    {
      "epoch": "2026-04-23T14:00:04.000032Z",
      "apogee_km": 457.464486074814,
      "perigee_km": 455.4758887675616,
      "latitude_deg": 2.7889591318717497,
      "longitude_deg": 79.83391296224549,
      "height_km": 456.3331065036858,
      "semi_major_axis_km": 6834.6071874211875,
      "eccentricity": 0.00014548,
      "inclination_deg": 53.1594,
      "raan_deg": 139.3991,
      "arg_perigee_deg": 47.1514,
      "mean_anomaly_deg": 316.4245,
      "mean_motion_rev_day": 15.36499501
    },
    {
      "epoch": "2026-04-24T20:00:01.999008Z",
      "apogee_km": 471.7866939149362,
      "perigee_km": 470.75654285873134,
      "latitude_deg": 48.4675673791769,
      "longitude_deg": 37.95431814147283,
      "height_km": 476.254927613785,
      "semi_major_axis_km": 6849.408618386834,
      "eccentricity": 7.52e-05,
      "inclination_deg": 53.1598,
      "raan_deg": 133.5601,
      "arg_perigee_deg": 88.0537,
      "mean_anomaly_deg": 340.8933,
      "mean_motion_rev_day": 15.31521677
    }
  ]
}